NORAD_CAT_ID,OBJECT_NAME,OBJECT_TYPE,EPOCH,MEAN_MOTION,ECCENTRICITY,INCLINATION,RA_OF_ASC_NODE,ARG_OF_PERICENTER,MEAN_ANOMALY,BSTAR,MEAN_MOTION_DOT,MEAN_MOTION_DDOT,TLE_LINE0,TLE_LINE1,TLE_LINE2,SEMIMAJOR_AXIS,PERIOD,APOGEE,PERIGEE,DECAYED
55948.0,STARLINK-5900,PAYLOAD,2024-02-17 22:17:38,14.98327372,0.000297,70.0016,357.5049,269.8847,90.1971,1.9701e-05,1.42e-06,0.0,0 STARLINK-5900,1 55948U 23037AL  24048.92891261  .00000142  00000-0  19701-4 0  9991,2 55948  70.0016 357.5049 0002970 269.8847  90.1971 14.98327372 52013,6950.201,96.107,574.13,570.002,0.0
55948.0,STARLINK-5900,PAYLOAD,2024-02-18 06:18:17,14.98334554,0.0002677,70.0022,356.6643,269.647,90.4382,3.6954e-05,3.48e-06,0.0,0 STARLINK-5900,1 55948U 23037AL  24049.26270790  .00000348  00000-0  36954-4 0  9994,2 55948  70.0022 356.6643 0002677 269.6470  90.4382 14.98334554 52068,6950.179,96.107,573.904,570.183,0.0
55948.0,STARLINK-5900,PAYLOAD,2024-02-18 22:19:38,14.98322356,0.0002944,70.0024,354.9813,270.8503,89.2319,0.00020062,2.301e-05,0.0,0 STARLINK-5900,1 55948U 23037AL  24049.93030925  .00002301  00000-0  20062-3 0  9995,2 55948  70.0024 354.9813 0002944 270.8503  89.2319 14.98322356 52162,6950.217,96.107,574.128,570.035,0.0
55948.0,STARLINK-5900,PAYLOAD,2024-02-19 03:08:02,14.98332911,0.0002686,70.0024,354.4785,258.8999,101.1858,3.7038e-05,3.49e-06,0.0,0 STARLINK-5900,1 55948U 23037AL  24050.13058644  .00000349  00000-0  37038-4 0  9999,2 55948  70.0024 354.4785 0002686 258.8999 101.1858 14.98332911 52534,6950.184,96.107,573.916,570.182,0.0
55948.0,STARLINK-5900,PAYLOAD,2024-02-19 06:20:18,14.98334643,0.0002805,70.0021,354.1414,264.0455,96.0384,3.0172e-05,2.67e-06,0.0,0 STARLINK-5900,1 55948U 23037AL  24050.26410497  .00000267  00000-0  30172-4 0  9992,2 55948  70.0021 354.1414 0002805 264.0455  96.0384 14.98334643 52211,6950.179,96.107,573.993,570.094,0.0
55948.0,STARLINK-5900,PAYLOAD,2024-02-19 19:09:24,14.98246674,0.0002975,70.0026,352.7957,260.9766,99.1057,0.0012887,0.00015284,0.0,0 STARLINK-5900,1 55948U 23037AL  24050.79820308  .00015284  00000-0  12887-2 0  9992,2 55948  70.0026 352.7957 0002975 260.9766  99.1057 14.98246674 52633,6950.451,96.112,574.383,570.248,0.0
55948.0,STARLINK-5900,PAYLOAD,2024-02-19 22:21:40,14.98305507,0.0002661,70.0027,352.4587,267.8119,92.2736,0.00026087,3.019e-05,0.0,0 STARLINK-5900,1 55948U 23037AL  24050.93171851  .00003019  00000-0  26087-3 0  9991,2 55948  70.0027 352.4587 0002661 267.8119  92.2736 14.98305507 52314,6950.269,96.109,573.983,570.284,0.0
55948.0,STARLINK-5900,PAYLOAD,2024-02-20 03:10:04,14.98325752,0.0002517,70.0028,351.9532,255.4224,104.6656,-6.5533e-05,-8.75e-06,0.0,0 STARLINK-5900,1 55948U 23037AL  24051.13199406 -.00000875  00000-0 -65533-4 0  9999,2 55948  70.0028 351.9532 0002517 255.4224 104.6656 14.98325752 52682,6950.206,96.107,573.82,570.322,0.0
55948.0,STARLINK-5900,PAYLOAD,2024-02-20 12:46:52,14.98328202,0.0002463,70.0028,350.9434,264.7527,95.3351,-7.15e-05,-9.46e-06,0.0,0 STARLINK-5900,1 55948U 23037AL  24051.53255406 -.00000946  00000-0 -71500-4 0  9996,2 55948  70.0028 350.9434 0002463 264.7527  95.3351 14.98328202 52402,6950.198,96.107,573.775,570.352,0.0
55948.0,STARLINK-5900,PAYLOAD,2024-02-20 22:23:40,14.98330482,0.0002785,70.0017,349.9327,263.653,96.4312,3.4071e-05,3.14e-06,0.0,0 STARLINK-5900,1 55948U 23037AL  24051.93310833  .00000314  00000-0  34071-4 0  9995,2 55948  70.0017 349.9327 0002785 263.6530  96.4312 14.98330482 52466,6950.191,96.107,573.992,570.121,0.0
55948.0,STARLINK-5900,PAYLOAD,2024-02-21 03:12:04,14.98334175,0.0002666,70.0018,349.4276,262.8851,97.2005,5.9998e-05,6.23e-06,0.0,0 STARLINK-5900,1 55948U 23037AL  24052.13338514  .00000623  00000-0  59998-4 0  9992,2 55948  70.0018 349.4276 0002666 262.8851  97.2005 14.98334175 52832,6950.18,96.107,573.898,570.192,0.0
55948.0,STARLINK-5900,PAYLOAD,2024-02-21 12:48:52,14.98350004,0.0002751,70.0018,348.4165,276.0277,84.0569,-0.00031448,-3.845e-05,0.0,0 STARLINK-5900,1 55948U 23037AL  24052.53394331 -.00003845  00000-0 -31448-3 0  9995,2 55948  70.0018 348.4165 0002751 276.0277  84.0569 14.98350004 52559,6950.131,96.106,573.908,570.084,0.0
55948.0,STARLINK-5900,PAYLOAD,2024-02-21 22:25:41,14.98322405,0.0002768,70.0022,347.4093,272.264,87.8202,3.9306e-05,3.76e-06,0.0,0 STARLINK-5900,1 55948U 23037AL  24052.93451368  .00000376  00000-0  39306-4 0  9999,2 55948  70.0022 347.4093 0002768 272.2640  87.8202 14.98322405 52619,6950.216,96.107,574.005,570.158,0.0
55948.0,STARLINK-5900,PAYLOAD,2024-02-22 03:14:06,14.98322997,0.0002708,70.0022,346.9041,271.3606,88.7243,3.7925e-05,3.6e-06,0.0,0 STARLINK-5900,1 55948U 23037AL  24053.13479412  .00000360  00000-0  37925-4 0  9990,2 55948  70.0022 346.9041 0002708 271.3606  88.7243 14.98322997 52983,6950.215,96.107,573.962,570.197,0.0
55948.0,STARLINK-5900,PAYLOAD,2024-02-22 12:50:54,14.98319374,0.0002451,70.0021,345.8935,269.7726,90.3152,0.00013142,1.475e-05,0.0,0 STARLINK-5900,1 55948U 23037AL  24053.53535552  .00001475  00000-0  13142-3 0  9994,2 55948  70.0021 345.8935 0002451 269.7726  90.3152 14.98319374 52704,6950.226,96.108,573.794,570.387,0.0
55948.0,STARLINK-5900,PAYLOAD,2024-02-22 22:27:42,14.9833436,0.0002647,70.0017,344.8841,271.4408,88.6448,1.1814e-05,4.8e-07,0.0,0 STARLINK-5900,1 55948U 23037AL  24053.93590806  .00000048  00000-0  11814-4 0  9991,2 55948  70.0017 344.8841 0002647 271.4408  88.6448 14.98334360 52764,6950.179,96.107,573.884,570.205,0.0
55948.0,STARLINK-5900,PAYLOAD,2024-02-23 03:16:06,14.98337011,0.000268,70.0018,344.3787,267.98,92.1052,7.3499e-06,-5e-08,0.0,0 STARLINK-5900,1 55948U 23037AL  24054.13618555 -.00000005  00000-0  73499-5 0  9998,2 55948  70.0018 344.3787 0002680 267.9800  92.1052 14.98337011 53131,6950.171,96.107,573.899,570.174,0.0
55948.0,STARLINK-5900,PAYLOAD,2024-02-23 12:52:55,14.9832348,0.000253,70.0017,343.3686,265.9834,94.1036,8.4967e-05,9.21e-06,0.0,0 STARLINK-5900,1 55948U 23037AL  24054.53675159  .00000921  00000-0  84967-4 0  9992,2 55948  70.0017 343.3686 0002530 265.9834  94.1036 14.98323480 52853,6950.213,96.107,573.836,570.32,0.0
55948.0,STARLINK-5900,PAYLOAD,2024-02-23 19:17:27,14.98324837,0.0002682,70.002,342.6954,273.6876,86.3977,-3.0109e-05,-4.52e-06,0.0,0 STARLINK-5900,1 55948U 23037AL  24054.80379371 -.00000452  00000-0 -30109-4 0  9999,2 55948  70.0020 342.6954 0002682 273.6876  86.3977 14.98324837 53234,6950.209,96.107,573.938,570.21,0.0
55948.0,STARLINK-5900,PAYLOAD,2024-02-23 22:29:43,14.98325128,0.0002646,70.0019,342.3588,273.9201,86.1656,-4.0116e-05,-5.71e-06,0.0,0 STARLINK-5900,1 55948U 23037AL  24054.93731428 -.00000571  00000-0 -40116-4 0  9999,2 55948  70.0019 342.3588 0002646 273.9201  86.1656 14.98325128 52917,6950.208,96.107,573.912,570.234,0.0
55948.0,STARLINK-5900,PAYLOAD,2024-02-24 12:54:56,14.98329185,0.0002521,70.002,340.8429,272.3697,87.7173,2.1555e-05,1.64e-06,0.0,0 STARLINK-5900,1 55948U 23037AL  24055.53815119  .00000164  00000-0  21555-4 0  9998,2 55948  70.0020 340.8429 0002521 272.3697  87.7173 14.98329185 53009,6950.195,96.107,573.813,570.308,0.0
55948.0,STARLINK-5900,PAYLOAD,2024-02-25 03:20:08,14.98337483,0.0002584,70.0018,339.3278,266.8462,93.2401,1.7613e-05,1.17e-06,0.0,0 STARLINK-5900,1 55948U 23037AL  24056.13898411  .00000117  00000-0  17613-4 0  9999,2 55948  70.0018 339.3278 0002584 266.8462  93.2401 14.98337483 53431,6950.17,96.107,573.831,570.239,0.0
55948.0,STARLINK-5900,PAYLOAD,2024-02-25 04:56:16,14.98335101,0.0002544,70.002,339.1597,268.2996,91.7872,7.946e-05,8.55e-06,0.0,0 STARLINK-5900,1 55948U 23037AL  24056.20574396  .00000855  00000-0  79460-4 0  9997,2 55948  70.0020 339.1597 0002544 268.2996  91.7872 14.98335101 53104,6950.177,96.107,573.81,570.274,0.0
55948.0,STARLINK-5900,PAYLOAD,2024-02-25 22:33:45,14.98331648,0.0002593,70.0015,337.3077,268.9332,91.153,5.0545e-05,5.1e-06,0.0,0 STARLINK-5900,1 55948U 23037AL  24056.94010470  .00000510  00000-0  50545-4 0  9997,2 55948  70.0015 337.3077 0002593 268.9332  91.1530 14.98331648 53215,6950.188,96.107,573.855,570.251,0.0
55948.0,STARLINK-5900,PAYLOAD,2024-02-26 03:22:09,14.98332111,0.0002642,70.0016,336.8031,271.8278,88.2578,5.2005e-05,5.28e-06,0.0,0 STARLINK-5900,1 55948U 23037AL  24057.14038420  .00000528  00000-0  52005-4 0  9997,2 55948  70.0016 336.8031 0002642 271.8278  88.2578 14.98332111 53582,6950.186,96.107,573.888,570.215,0.0
55948.0,STARLINK-5900,PAYLOAD,2024-02-26 04:58:17,14.98337352,0.0002487,70.0016,336.6343,268.8669,91.2205,7.414e-06,-4e-08,0.0,0 STARLINK-5900,1 55948U 23037AL  24057.20714161 -.00000004  00000-0  74140-5 0  9992,2 55948  70.0016 336.6343 0002487 268.8669  91.2205 14.98337352 53250,6950.17,96.107,573.764,570.307,0.0
55948.0,STARLINK-5900,PAYLOAD,2024-02-26 19:23:30,14.98309594,0.0002497,70.0021,335.1201,258.0046,102.0833,0.00028896,3.355e-05,0.0,0 STARLINK-5900,1 55948U 23037AL  24057.80799058  .00003355  00000-0  28896-3 0  9992,2 55948  70.0021 335.1201 0002497 258.0046 102.0833 14.98309594 53686,6950.256,96.108,573.856,570.386,0.0
55948.0,STARLINK-5900,PAYLOAD,2024-02-26 22:35:47,14.98278251,0.0002731,70.0019,334.7836,254.6201,105.4657,0.00080552,9.518e-05,0.0,0 STARLINK-5900,1 55948U 23037AL  24057.94151909  .00009518  00000-0  80552-3 0  9998,2 55948  70.0019 334.7836 0002731 254.6201 105.4657 14.98278251 53369,6950.353,96.11,574.116,570.32,0.0
55948.0,STARLINK-5900,PAYLOAD,2024-02-27 03:24:10,14.98330395,0.000272,70.0012,334.2781,262.9694,97.1156,-5.0815e-05,-6.99e-06,0.0,0 STARLINK-5900,1 55948U 23037AL  24058.14178658 -.00000699  00000-0 -50815-4 0  9994,2 55948  70.0012 334.2781 0002720 262.9694  97.1156 14.98330395 53732,6950.192,96.107,573.947,570.166,0.0
55948.0,STARLINK-5900,PAYLOAD,2024-02-27 11:24:51,14.9832242,0.000269,70.0008,333.4359,262.1913,97.8941,-0.00014206,-1.787e-05,0.0,0 STARLINK-5900,1 55948U 23037AL  24058.47559320 -.00001787  00000-0 -14206-3 0  9991,2 55948  70.0008 333.4359 0002690 262.1913  97.8941 14.98322420 53785,6950.216,96.107,573.951,570.212,0.0
